NORAD_CAT_ID,OBJECT_NAME,OBJECT_TYPE,EPOCH,MEAN_MOTION,ECCENTRICITY,INCLINATION,RA_OF_ASC_NODE,ARG_OF_PERICENTER,MEAN_ANOMALY,BSTAR,MEAN_MOTION_DOT,MEAN_MOTION_DDOT,TLE_LINE0,TLE_LINE1,TLE_LINE2,SEMIMAJOR_AXIS,PERIOD,APOGEE,PERIGEE,DECAYED
53260.0,STARLINK-4136,PAYLOAD,2024-08-04 21:32:07,15.08863684,0.0001045,53.2153,285.8869,82.4091,277.702,0.00057159,8.827e-05,0.0,0 STARLINK-4136,1 53260U 22086U   24217.89730638  .00008827  00000-0  57159-3 0  9999,2 53260  53.2153 285.8869 0001045  82.4091 277.7020 15.08863684113231,6917.808,95.436,540.396,538.95,0.0
53260.0,STARLINK-4136,PAYLOAD,2024-08-05 11:50:35,15.08849636,0.0001588,53.2165,283.2178,98.5546,261.5626,0.00013234,1.819e-05,0.0,0 STARLINK-4136,1 53260U 22086U   24218.49346852  .00001819  00000-0  13234-3 0  9997,2 53260  53.2165 283.2178 0001588  98.5546 261.5626 15.08849636113148,6917.851,95.437,540.814,538.617,0.0
53260.0,STARLINK-4136,PAYLOAD,2024-08-05 21:22:53,15.08869861,0.000164,53.2171,281.4303,95.9871,264.1308,0.00055782,8.608e-05,0.0,0 STARLINK-4136,1 53260U 22086U   24218.89089787  .00008608  00000-0  55782-3 0  9999,2 53260  53.2171 281.4303 0001640  95.9871 264.1308 15.08869861113201,6917.789,95.436,540.789,538.52,0.0
53260.0,STARLINK-4136,PAYLOAD,2024-08-06 11:41:21,15.08833271,0.0001264,53.2144,278.7501,79.4768,280.6367,-0.00047517,-7.841e-05,0.0,0 STARLINK-4136,1 53260U 22086U   24219.48705858 -.00007841  00000-0 -47517-3 0  9996,2 53260  53.2144 278.7501 0001264  79.4768 280.6367 15.08833271113297,6917.901,95.438,540.64,538.892,0.0
53260.0,STARLINK-4136,PAYLOAD,2024-08-06 13:16:45,15.08835282,0.0001221,53.2148,278.4527,82.2488,277.8643,-0.0003556,-5.942e-05,0.0,0 STARLINK-4136,1 53260U 22086U   24219.55330033 -.00005942  00000-0 -35560-3 0  9998,2 53260  53.2148 278.4527 0001221  82.2488 277.8643 15.08835282113480,6917.895,95.438,540.604,538.915,0.0
53260.0,STARLINK-4136,PAYLOAD,2024-08-07 11:32:10,15.08831467,0.0001846,53.2163,274.2858,65.6749,294.4435,-9.7688e-05,-1.842e-05,0.0,0 STARLINK-4136,1 53260U 22086U   24220.48067243 -.00001842  00000-0 -97688-4 0  9997,2 53260  53.2163 274.2858 0001846  65.6749 294.4435 15.08831467113627,6917.906,95.438,541.049,538.494,0.0
53260.0,STARLINK-4136,PAYLOAD,2024-08-08 09:47:34,15.08838185,0.0001992,53.2167,270.1192,62.5587,297.5608,0.00045416,6.947e-05,0.0,0 STARLINK-4136,1 53260U 22086U   24221.40803968  .00006947  00000-0  45416-3 0  9992,2 53260  53.2167 270.1192 0001992  62.5587 297.5608 15.08838185113760,6917.886,95.438,541.129,538.373,0.0
53260.0,STARLINK-4136,PAYLOAD,2024-08-09 03:16:49,15.08840731,0.0001879,53.2139,266.8597,59.6255,300.4923,0.00052465,8.072e-05,0.0,0 STARLINK-4136,1 53260U 22086U   24222.13668365  .00008072  00000-0  52465-3 0  9996,2 53260  53.2139 266.8597 0001879  59.6255 300.4923 15.08840731113699,6917.878,95.438,541.043,538.443,0.0
53260.0,STARLINK-4136,PAYLOAD,2024-08-09 09:38:21,15.08844058,0.0001524,53.2151,265.6664,84.4096,275.707,0.00030863,4.628e-05,0.0,0 STARLINK-4136,1 53260U 22086U   24222.40163967  .00004628  00000-0  30863-3 0  9995,2 53260  53.2151 265.6664 0001524  84.4096 275.7070 15.08844058113919,6917.868,95.437,540.787,538.679,0.0
53260.0,STARLINK-4136,PAYLOAD,2024-08-10 03:07:36,15.08838151,0.0001637,53.2154,262.3957,88.564,271.554,0.00017281,2.463e-05,0.0,0 STARLINK-4136,1 53260U 22086U   24223.13028479  .00002463  00000-0  17281-3 0  9998,2 53260  53.2154 262.3957 0001637  88.5640 271.5540 15.08838151113841,6917.886,95.438,540.883,538.619,0.0
53260.0,STARLINK-4136,PAYLOAD,2024-08-10 12:39:55,15.08837593,0.0001642,53.2165,260.6106,88.8581,271.2599,0.00014296,1.988e-05,0.0,0 STARLINK-4136,1 53260U 22086U   24223.52772566  .00001988  00000-0  14296-3 0  9998,2 53260  53.2165 260.6106 0001642  88.8581 271.2599 15.08837593114080,6917.888,95.438,540.889,538.617,0.0
53260.0,STARLINK-4136,PAYLOAD,2024-08-11 09:19:55,15.08852019,0.0001438,53.2158,256.7465,84.3599,275.7557,0.00038907,5.912e-05,0.0,0 STARLINK-4136,1 53260U 22086U   24224.38884117  .00005912  00000-0  38907-3 0  9995,2 53260  53.2158 256.7465 0001438  84.3599 275.7557 15.08852019114037,6917.844,95.437,540.703,538.714,0.0
53260.0,STARLINK-4136,PAYLOAD,2024-08-11 18:52:14,15.08852042,0.0001489,53.2161,254.9633,85.1353,274.9809,0.0004563,6.984e-05,0.0,0 STARLINK-4136,1 53260U 22086U   24224.78628088  .00006984  00000-0  45630-3 0  9993,2 53260  53.2161 254.9633 0001489  85.1353 274.9809 15.08852042114274,6917.844,95.437,540.739,538.679,0.0
53260.0,STARLINK-4136,PAYLOAD,2024-08-12 02:49:10,15.08841925,0.0001465,53.2166,253.4735,80.5456,279.5702,0.00011443,1.534e-05,0.0,0 STARLINK-4136,1 53260U 22086U   24225.11748344  .00001534  00000-0  11443-3 0  9990,2 53260  53.2166 253.4735 0001465  80.5456 279.5702 15.08841925114140,6917.875,95.437,540.753,538.726,0.0
53260.0,STARLINK-4136,PAYLOAD,2024-08-12 10:46:05,15.0885492,0.0001482,53.216,251.9879,83.6476,276.4685,0.00031387,4.713e-05,0.0,0 STARLINK-4136,1 53260U 22086U   24225.44867647  .00004713  00000-0  31387-3 0  9995,2 53260  53.2160 251.9879 0001482  83.6476 276.4685 15.08854920114191,6917.835,95.437,540.725,538.675,0.0
53260.0,STARLINK-4136,PAYLOAD,2024-08-12 18:43:01,15.08849388,0.0001872,53.2165,250.4999,83.4455,276.675,0.00016373,2.319e-05,0.0,0 STARLINK-4136,1 53260U 22086U   24225.77987781  .00002319  00000-0  16373-3 0  9991,2 53260  53.2165 250.4999 0001872  83.4455 276.6750 15.08849388114244,6917.852,95.437,541.012,538.422,0.0
53260.0,STARLINK-4136,PAYLOAD,2024-08-13 10:36:52,15.08845001,0.0001669,53.2167,247.5266,84.9567,275.1616,1.8291e-05,3e-08,0.0,0 STARLINK-4136,1 53260U 22086U   24226.44227562  .00000003  00000-0  18291-4 0  9990,2 53260  53.2167 247.5266 0001669  84.9567 275.1616 15.08845001114528,6917.865,95.437,540.885,538.576,0.0
53260.0,STARLINK-4136,PAYLOAD,2024-08-13 18:33:48,15.08838956,0.0001762,53.2171,246.0375,77.7247,282.3942,-0.00023131,-3.967e-05,0.0,0 STARLINK-4136,1 53260U 22086U   24226.77347750 -.00003967  00000-0 -23131-3 0  9990,2 53260  53.2171 246.0375 0001762  77.7247 282.3942 15.08838956114395,6917.884,95.438,540.968,538.53,0.0
53260.0,STARLINK-4136,PAYLOAD,2024-08-14 07:16:54,15.08827582,0.0001411,53.217,243.6615,86.2451,273.8703,-8.0147e-05,-1.563e-05,0.0,0 STARLINK-4136,1 53260U 22086U   24227.30340907 -.00001563  00000-0 -80147-4 0  9998,2 53260  53.2170 243.6615 0001411  86.2451 273.8703 15.08827582114479,6917.918,95.438,540.759,538.807,0.0
53260.0,STARLINK-4136,PAYLOAD,2024-08-14 18:24:36,15.08831748,0.0001451,53.2157,241.5808,83.6089,276.5069,-0.00011972,-2.192e-05,0.0,0 STARLINK-4136,1 53260U 22086U   24227.76709026 -.00002192  00000-0 -11972-3 0  9997,2 53260  53.2157 241.5808 0001451  83.6089 276.5069 15.08831748114729,6917.906,95.438,540.774,538.767,0.0
53260.0,STARLINK-4136,PAYLOAD,2024-08-15 07:07:41,15.08834815,0.0001381,53.2163,239.2004,86.607,273.508,0.00014355,1.997e-05,0.0,0 STARLINK-4136,1 53260U 22086U   24228.29701324  .00001997  00000-0  14355-3 0  9997,2 53260  53.2163 239.2004 0001381  86.6070 273.5080 15.08834815114800,6917.896,95.438,540.717,538.806,0.0
53260.0,STARLINK-4136,PAYLOAD,2024-08-15 18:15:23,15.08842421,0.0001417,53.2158,237.1188,89.3085,270.807,0.00021431,3.125e-05,0.0,0 STARLINK-4136,1 53260U 22086U   24228.76069128  .00003125  00000-0  21431-3 0  9996,2 53260  53.2158 237.1188 0001417  89.3085 270.8070 15.08842421114698,6917.873,95.437,540.718,538.758,0.0
53260.0,STARLINK-4136,PAYLOAD,2024-08-16 06:58:28,15.08853352,0.0001454,53.2149,234.7406,85.8328,274.283,0.00057064,8.809e-05,0.0,0 STARLINK-4136,1 53260U 22086U   24229.29061117  .00008809  00000-0  57064-3 0  9990,2 53260  53.2149 234.7406 0001454  85.8328 274.2830 15.08853352114952,6917.84,95.437,540.71,538.699,0.0
53260.0,STARLINK-4136,PAYLOAD,2024-08-17 05:13:52,15.08845104,0.0001609,53.2143,230.5774,112.6649,247.4513,0.00013257,1.823e-05,0.0,0 STARLINK-4136,1 53260U 22086U   24230.21797027  .00001823  00000-0  13257-3 0  9995,2 53260  53.2143 230.5774 0001609 112.6649 247.4513 15.08845104114917,6917.865,95.437,540.843,538.617,0.0
53260.0,STARLINK-4136,PAYLOAD,2024-08-18 05:04:39,15.08847532,0.0001427,53.216,226.1164,97.8272,262.2882,5.0531e-05,5.16e-06,0.0,0 STARLINK-4136,1 53260U 22086U   24231.21156827  .00000516  00000-0  50531-4 0  9998,2 53260  53.2160 226.1164 0001427  97.8272 262.2882 15.08847532115242,6917.857,95.437,540.71,538.735,0.0
53260.0,STARLINK-4136,PAYLOAD,2024-08-19 04:55:27,15.08825066,0.0001445,53.2162,221.6565,96.7612,263.3544,0.00014485,2.017e-05,0.0,0 STARLINK-4136,1 53260U 22086U   24232.20518011  .00002017  00000-0  14485-3 0  9990,2 53260  53.2162 221.6565 0001445  96.7612 263.3544 15.08825066115217,6917.926,95.438,540.791,538.791,0.0
53260.0,STARLINK-4136,PAYLOAD,2024-08-19 11:17:00,15.08822579,0.0001449,53.2162,220.4677,89.4273,270.6885,0.00020753,3.015e-05,0.0,0 STARLINK-4136,1 53260U 22086U   24232.47014215  .00003015  00000-0  20753-3 0  9990,2 53260  53.2162 220.4677 0001449  89.4273 270.6885 15.08822579115433,6917.934,95.439,540.801,538.796,0.0
53260.0,STARLINK-4136,PAYLOAD,2024-08-20 04:46:14,15.08841416,0.000142,53.2162,217.1967,88.2604,271.8551,5.5813e-05,6e-06,0.0,0 STARLINK-4136,1 53260U 22086U   24233.19877521  .00000600  00000-0  55813-4 0  9990,2 53260  53.2162 217.1967 0001420  88.2604 271.8551 15.08841416115368,6917.876,95.437,540.723,538.759,0.0
53260.0,STARLINK-4136,PAYLOAD,2024-08-20 07:57:00,15.08843798,0.0001419,53.2161,216.6022,90.1777,269.9378,7.4622e-05,9e-06,0.0,0 STARLINK-4136,1 53260U 22086U   24233.33125293  .00000900  00000-0  74622-4 0  9990,2 53260  53.2161 216.6022 0001419  90.1777 269.9378 15.08843798115566,6917.869,95.437,540.715,538.752,0.0
53260.0,STARLINK-4136,PAYLOAD,2024-08-21 07:47:47,15.08840686,0.0001432,53.2159,212.1415,87.8863,272.2293,0.0001297,1.777e-05,0.0,0 STARLINK-4136,1 53260U 22086U   24234.32485525  .00001777  00000-0  12970-3 0  9997,2 53260  53.2159 212.1415 0001432  87.8863 272.2293 15.08840686115537,6917.878,95.438,540.734,538.753,0.0
